NORAD_CAT_ID,OBJECT_NAME,OBJECT_TYPE,EPOCH,MEAN_MOTION,ECCENTRICITY,INCLINATION,RA_OF_ASC_NODE,ARG_OF_PERICENTER,MEAN_ANOMALY,BSTAR,MEAN_MOTION_DOT,MEAN_MOTION_DDOT,TLE_LINE0,TLE_LINE1,TLE_LINE2,SEMIMAJOR_AXIS,PERIOD,APOGEE,PERIGEE,DECAYED
53604.0,STARLINK-4690,PAYLOAD,2023-10-09 06:47:16,15.08859526,0.0001211,53.2154,240.2549,97.3341,262.7789,0.00030936,4.642e-05,0.0,0 STARLINK-4690,1 53604U 22104S   23282.28282479  .00004642  00000-0  30936-3 0  9996,2 53604  53.2154 240.2549 0001211  97.3341 262.7789 15.08859526 61780,6917.821,95.436,540.523,538.848,0.0
53604.0,STARLINK-4690,PAYLOAD,2023-10-09 14:44:13,15.08834833,0.000174,53.2165,238.7674,91.1419,268.9773,1.2936e-05,-8.2e-07,0.0,0 STARLINK-4690,1 53604U 22104S   23282.61403953 -.00000082  00000-0  12936-4 0  9991,2 53604  53.2165 238.7674 0001740  91.1419 268.9773 15.08834833 61839,6917.896,95.438,540.965,538.557,0.0
53604.0,STARLINK-4690,PAYLOAD,2023-10-09 21:05:45,15.08836448,0.0001721,53.216,237.58,86.6377,273.4812,7.9121e-05,9.71e-06,0.0,0 STARLINK-4690,1 53604U 22104S   23282.87900082  .00000971  00000-0  79121-4 0  9999,2 53604  53.2160 237.5800 0001721  86.6377 273.4812 15.08836448 62563,6917.891,95.438,540.947,538.566,0.0
53604.0,STARLINK-4690,PAYLOAD,2023-10-10 06:38:04,15.08845608,0.0001956,53.2161,235.7944,89.9921,270.1296,0.00016326,2.311e-05,0.0,0 STARLINK-4690,1 53604U 22104S   23283.27643630  .00002311  00000-0  16326-3 0  9994,2 53604  53.2161 235.7944 0001956  89.9921 270.1296 15.08845608 61932,6917.863,95.437,541.081,538.375,0.0
53604.0,STARLINK-4690,PAYLOAD,2023-10-11 03:18:05,15.08840088,0.0001501,53.2161,231.9291,103.3941,256.7219,0.00017726,2.534e-05,0.0,0 STARLINK-4690,1 53604U 22104S   23284.13755990  .00002534  00000-0  17726-3 0  9995,2 53604  53.2161 231.9291 0001501 103.3941 256.7219 15.08840088 62061,6917.88,95.438,540.783,538.707,0.0
53604.0,STARLINK-4690,PAYLOAD,2023-10-11 06:28:51,15.08850852,0.0001496,53.2163,231.3354,101.3132,258.8029,0.00033278,5.014e-05,0.0,0 STARLINK-4690,1 53604U 22104S   23284.27003592  .00005014  00000-0  33278-3 0  9990,2 53604  53.2163 231.3354 0001496 101.3132 258.8029 15.08850852 62084,6917.847,95.437,540.747,538.677,0.0
53604.0,STARLINK-4690,PAYLOAD,2023-10-12 03:08:52,15.08842366,0.000163,53.2178,227.4687,101.6935,258.424,0.00041971,6.398e-05,0.0,0 STARLINK-4690,1 53604U 22104S   23285.13116372  .00006398  00000-0  41971-3 0  9992,2 53604  53.2178 227.4687 0001630 101.6935 258.4240 15.08842366 62216,6917.873,95.437,540.866,538.611,0.0
53604.0,STARLINK-4690,PAYLOAD,2023-10-12 12:41:11,15.08848114,0.0001478,53.2172,225.6856,108.0049,252.1105,0.00066088,0.00010248,0.0,0 STARLINK-4690,1 53604U 22104S   23285.52860397  .00010248  00000-0  66088-3 0  9993,2 53604  53.2172 225.6856 0001478 108.0049 252.1105 15.08848114 62965,6917.856,95.437,540.743,538.698,0.0
53604.0,STARLINK-4690,PAYLOAD,2023-10-13 02:59:39,15.08849988,0.0001366,53.2165,223.0124,99.4709,260.6437,0.00028886,4.313e-05,0.0,0 STARLINK-4690,1 53604U 22104S   23286.12476403  .00004313  00000-0  28886-3 0  9991,2 53604  53.2165 223.0124 0001366  99.4709 260.6437 15.08849988 62365,6917.85,95.437,540.66,538.77,0.0
53604.0,STARLINK-4690,PAYLOAD,2023-10-13 12:31:58,15.08845043,0.0001341,53.2174,221.2251,95.1341,264.9804,0.0003109,4.664e-05,0.0,0 STARLINK-4690,1 53604U 22104S   23286.52220348  .00004664  00000-0  31090-3 0  9990,2 53604  53.2174 221.2251 0001341  95.1341 264.9804 15.08845043 63111,6917.865,95.437,540.658,538.802,0.0
53604.0,STARLINK-4690,PAYLOAD,2023-10-14 12:22:44,15.08859866,0.0001019,53.2182,216.765,75.6916,284.4189,0.00040729,6.204e-05,0.0,0 STARLINK-4690,1 53604U 22104S   23287.51579416  .00006204  00000-0  40729-3 0  9994,2 53604  53.2182 216.7650 0001019  75.6916 284.4189 15.08859866 63262,6917.82,95.436,540.39,538.98,0.0
53604.0,STARLINK-4690,PAYLOAD,2023-10-14 18:44:17,15.08839666,0.000247,53.2163,215.5789,86.3051,273.8223,-2.2571e-05,-6.48e-06,0.0,0 STARLINK-4690,1 53604U 22104S   23287.78076371 -.00000648  00000-0 -22571-4 0  9999,2 53604  53.2163 215.5789 0002470  86.3051 273.8223 15.08839666 62617,6917.881,95.438,541.455,538.038,0.0
53604.0,STARLINK-4690,PAYLOAD,2023-10-15 04:16:37,15.08823249,0.00013,53.2165,213.792,112.1656,247.9475,0.00069599,0.00010801,0.0,0 STARLINK-4690,1 53604U 22104S   23288.17820886  .00010801  00000-0  69599-3 0  9991,2 53604  53.2165 213.7920 0001300 112.1656 247.9475 15.08823249 62673,6917.932,95.439,540.696,538.897,0.0
53604.0,STARLINK-4690,PAYLOAD,2023-10-15 12:13:33,15.08832103,0.0001366,53.2162,212.3056,87.9331,272.1817,0.0014466,0.00022805,0.0,0 STARLINK-4690,1 53604U 22104S   23288.50941464  .00022805  00000-0  14466-2 0  9993,2 53604  53.2162 212.3056 0001366  87.9331 272.1817 15.08832103 63418,6917.905,95.438,540.715,538.825,0.0
53604.0,STARLINK-4690,PAYLOAD,2023-10-16 02:32:01,15.08861556,0.0001339,53.216,209.6297,88.7163,271.3982,0.0017453,0.00027614,0.0,0 STARLINK-4690,1 53604U 22104S   23289.10557214  .00027614  00000-0  17453-2 0  9998,2 53604  53.2160 209.6297 0001339  88.7163 271.3982 15.08861556 62815,6917.815,95.436,540.606,538.753,0.0
53604.0,STARLINK-4690,PAYLOAD,2023-10-16 12:04:20,15.08853281,0.0001602,53.2172,207.8453,76.3106,283.8064,0.00094994,0.00014868,0.0,0 STARLINK-4690,1 53604U 22104S   23289.50301295  .00014868  00000-0  94994-3 0  9991,2 53604  53.2172 207.8453 0001602  76.3106 283.8064 15.08853281 62876,6917.84,95.437,540.813,538.597,0.0
53604.0,STARLINK-4690,PAYLOAD,2023-10-17 11:55:06,15.08856735,0.000118,53.216,203.3859,76.6571,283.4552,0.0010358,0.00016243,0.0,0 STARLINK-4690,1 53604U 22104S   23290.49660851  .00016243  00000-0  10358-2 0  9997,2 53604  53.2160 203.3859 0001180  76.6571 283.4552 15.08856735 63027,6917.829,95.436,540.511,538.878,0.0
53604.0,STARLINK-4690,PAYLOAD,2023-10-18 00:38:12,15.08847534,0.000165,53.217,201.0045,104.1962,255.9213,0.00063979,9.911e-05,0.0,0 STARLINK-4690,1 53604U 22104S   23291.02652873  .00009911  00000-0  63979-3 0  9994,2 53604  53.2170 201.0045 0001650 104.1962 255.9213 15.08847534 63107,6917.857,95.437,540.864,538.581,0.0
53604.0,STARLINK-4690,PAYLOAD,2023-10-18 21:18:12,15.08848128,0.0001597,53.216,197.138,94.3761,265.7414,0.0003808,5.779e-05,0.0,0 STARLINK-4690,1 53604U 22104S   23291.88764978  .00005779  00000-0  38080-3 0  9991,2 53604  53.2160 197.1380 0001597  94.3761 265.7414 15.08848128 63922,6917.856,95.437,540.825,538.616,0.0
53604.0,STARLINK-4690,PAYLOAD,2023-10-19 00:28:59,15.08851473,0.000138,53.2157,196.5455,83.5322,276.5828,0.00049344,7.576e-05,0.0,0 STARLINK-4690,1 53604U 22104S   23292.02012916  .00007576  00000-0  49344-3 0  9998,2 53604  53.2157 196.5455 0001380  83.5322 276.5828 15.08851473 63259,6917.845,95.437,540.665,538.756,0.0
53604.0,STARLINK-4690,PAYLOAD,2023-10-19 17:58:13,15.08852761,0.0001388,53.2154,193.2748,83.2757,276.8393,0.00048886,7.503e-05,0.0,0 STARLINK-4690,1 53604U 22104S   23292.74876700  .00007503  00000-0  48886-3 0  9996,2 53604  53.2154 193.2748 0001388  83.2757 276.8393 15.08852761 63365,6917.841,95.437,540.667,538.746,0.0
53604.0,STARLINK-4690,PAYLOAD,2023-10-19 22:44:22,15.08861775,0.0001594,53.2169,192.3809,87.8928,272.2246,0.00075498,0.00011755,0.0,0 STARLINK-4690,1 53604U 22104S   23292.94748289  .00011755  00000-0  75498-3 0  9991,2 53604  53.2169 192.3809 0001594  87.8928 272.2246 15.08861775 64080,6917.814,95.436,540.782,538.576,0.0
53604.0,STARLINK-4690,PAYLOAD,2023-10-20 03:30:31,15.08877712,0.0001338,53.2167,191.4881,83.1844,276.93,0.0011205,0.00017608,0.0,0 STARLINK-4690,1 53604U 22104S   23293.14619733  .00017608  00000-0  11205-2 0  9993,2 53604  53.2167 191.4881 0001338  83.1844 276.9300 15.08877712 63427,6917.765,95.435,540.556,538.705,0.0
53604.0,STARLINK-4690,PAYLOAD,2023-10-20 20:59:46,15.08829171,0.0001511,53.2162,188.2188,84.5255,275.5909,-0.00015082,-2.687e-05,0.0,0 STARLINK-4690,1 53604U 22104S   23293.87484622 -.00002687  00000-0 -15082-3 0  9991,2 53604  53.2162 188.2188 0001511  84.5255 275.5909 15.08829171 63538,6917.913,95.438,540.824,538.733,0.0
53604.0,STARLINK-4690,PAYLOAD,2023-10-20 22:35:09,15.08827405,0.0001483,53.2159,187.924,78.569,281.5468,-0.00042001,-6.964e-05,0.0,0 STARLINK-4690,1 53604U 22104S   23293.94108736 -.00006964  00000-0 -42001-3 0  9991,2 53604  53.2159 187.9240 0001483  78.5690 281.5468 15.08827405 64236,6917.919,95.438,540.81,538.758,0.0
53604.0,STARLINK-4690,PAYLOAD,2023-10-21 09:42:51,15.08840713,0.0001358,53.2161,185.8406,79.6172,280.4973,5.2316e-05,5.45e-06,0.0,0 STARLINK-4690,1 53604U 22104S   23294.40476788  .00000545  00000-0  52316-4 0  9996,2 53604  53.2161 185.8406 0001358  79.6172 280.4973 15.08840713 64302,6917.878,95.438,540.683,538.804,0.0
53604.0,STARLINK-4690,PAYLOAD,2023-10-21 22:25:56,15.0885365,0.0001547,53.2159,183.461,86.3351,273.7818,0.00075243,0.00011712,0.0,0 STARLINK-4690,1 53604U 22104S   23294.93468516  .00011712  00000-0  75243-3 0  9995,2 53604  53.2159 183.4610 0001547  86.3351 273.7818 15.08853650 64389,6917.839,95.437,540.774,538.633,0.0
53604.0,STARLINK-4690,PAYLOAD,2023-10-22 00:01:19,15.08863446,0.0001526,53.2156,183.1642,90.0472,270.0695,0.0011301,0.00017755,0.0,0 STARLINK-4690,1 53604U 22104S   23295.00092373  .00017755  00000-0  11301-2 0  9995,2 53604  53.2156 183.1642 0001526  90.0472 270.0695 15.08863446 63703,6917.809,95.436,540.729,538.618,0.0
53604.0,STARLINK-4690,PAYLOAD,2023-10-22 09:33:38,15.08854633,0.0001465,53.2159,181.38,70.504,289.611,0.00040037,6.092e-05,0.0,0 STARLINK-4690,1 53604U 22104S   23295.39836308  .00006092  00000-0  40037-3 0  9992,2 53604  53.2159 181.3800 0001465  70.5040 289.6110 15.08854633 63760,6917.836,95.437,540.714,538.687,0.0
53604.0,STARLINK-4690,PAYLOAD,2023-10-22 20:41:21,15.08822505,0.0001641,53.2154,179.2986,75.1784,284.939,-0.00029865,-5.036e-05,0.0,0 STARLINK-4690,1 53604U 22104S   23295.86205327 -.00005036  00000-0 -29865-3 0  9990,2 53604  53.2154 179.2986 0001641  75.1784 284.9390 15.08822505 63837,6917.934,95.439,540.934,538.664,0.0
